<?xml version="1.0" encoding="UTF-8"?>
<kml xmlns="http://www.opengis.net/kml/2.2">
  <Document>
    <name>🎭 1. ריו דה ז&#x27;ניירו – ימי הקרנבל | ימים 1–6 · ב׳–ש׳ 1–6.2.2027</name>
    <Style id="attraction">
      <IconStyle><Icon><href>http://maps.google.com/mapfiles/ms/icons/green-dot.png</href></Icon></IconStyle>
    </Style>
    <Style id="nightlife">
      <IconStyle><Icon><href>http://maps.google.com/mapfiles/ms/icons/purple-dot.png</href></Icon></IconStyle>
    </Style>
    <Style id="hotel">
      <IconStyle><Icon><href>http://maps.google.com/mapfiles/ms/icons/blue-dot.png</href></Icon></IconStyle>
    </Style>
    <Style id="transport">
      <IconStyle><Icon><href>http://maps.google.com/mapfiles/ms/icons/yellow-dot.png</href></Icon></IconStyle>
    </Style>
    <Style id="route">
      <LineStyle><color>ccF27221</color><width>4</width></LineStyle>
    </Style>
    <Placemark>
      <name>✈️ שדה תעופה גליאאו (GIG)</name>
      <description><![CDATA[✈️ <b>תחבורה / מעבר</b><br/>נחיתה ביום ב׳ 1.2.<br/><a href="https://www.google.com/maps/search/?api=1&query=Rio%20de%20Janeiro%E2%80%93Gale%C3%A3o%20International%20Airport">פתיחה ב-Google Maps</a>]]></description>
      <styleUrl>#transport</styleUrl>
      <Point><coordinates>-43.2506,-22.809,0</coordinates></Point>
    </Placemark>
    <Placemark>
      <name>🥾 תצפית Arpoador</name>
      <description><![CDATA[🥾 <b>אטרקציה / טרק</b><br/>הסלע בין איפנמה לקופקבנה – השקיעה הראשונה של הטיול + קאיפיריניה.<br/><a href="https://www.google.com/maps/search/?api=1&query=Pedra%20do%20Arpoador%2C%20Rio%20de%20Janeiro">פתיחה ב-Google Maps</a>]]></description>
      <styleUrl>#attraction</styleUrl>
      <Point><coordinates>-43.1918,-22.9893,0</coordinates></Point>
    </Placemark>
    <Placemark>
      <name>🥾 טרק Morro Dois Irmãos</name>
      <description><![CDATA[🥾 <b>אטרקציה / טרק</b><br/>מוטו-טקסי לראש פאבלת וידיגל + כ-40 דק׳ הליכה לתצפית הכי שווה בריו. בוקר ד׳ 3.2.<br/><a href="https://www.google.com/maps/search/?api=1&query=Trilha%20Morro%20Dois%20Irm%C3%A3os%2C%20Vidigal%2C%20Rio%20de%20Janeiro">פתיחה ב-Google Maps</a>]]></description>
      <styleUrl>#attraction</styleUrl>
      <Point><coordinates>-43.2395,-22.9925,0</coordinates></Point>
    </Placemark>
    <Placemark>
      <name>🥾 חוף Joatinga</name>
      <description><![CDATA[🥾 <b>אטרקציה / טרק</b><br/>חוף נסתר בין צוקים בשכונת ז׳ואטינגה – מגיעים בשביל ירידה קצר. בוקר ה׳ 4.2.<br/><a href="https://www.google.com/maps/search/?api=1&query=Praia%20da%20Joatinga%2C%20Rio%20de%20Janeiro">פתיחה ב-Google Maps</a>]]></description>
      <styleUrl>#attraction</styleUrl>
      <Point><coordinates>-43.2892,-23.0151,0</coordinates></Point>
    </Placemark>
    <Placemark>
      <name>🥾 שוק Saara – ציוד קרנבל</name>
      <description><![CDATA[🥾 <b>אטרקציה / טרק</b><br/>מתחם שוק ענק במרכז – נצנצים, תלבושות ואביזרים בזול. ערב ה׳ 4.2.<br/><a href="https://www.google.com/maps/search/?api=1&query=Mercado%20Saara%2C%20Rio%20de%20Janeiro">פתיחה ב-Google Maps</a>]]></description>
      <styleUrl>#attraction</styleUrl>
      <Point><coordinates>-43.1815,-22.9035,0</coordinates></Point>
    </Placemark>
    <Placemark>
      <name>🥾 חוף איפנמה</name>
      <description><![CDATA[🥾 <b>אטרקציה / טרק</b><br/>בסיס הלינה – פוסטו 9.<br/><a href="https://www.google.com/maps/search/?api=1&query=Praia%20de%20Ipanema%2C%20Rio%20de%20Janeiro">פתיחה ב-Google Maps</a>]]></description>
      <styleUrl>#attraction</styleUrl>
      <Point><coordinates>-43.2065,-22.9868,0</coordinates></Point>
    </Placemark>
    <Placemark>
      <name>🥾 חוף קופקבנה</name>
      <description><![CDATA[🥾 <b>אטרקציה / טרק</b><br/>טיילת הגלים המפורסמת.<br/><a href="https://www.google.com/maps/search/?api=1&query=Praia%20de%20Copacabana%2C%20Rio%20de%20Janeiro">פתיחה ב-Google Maps</a>]]></description>
      <styleUrl>#attraction</styleUrl>
      <Point><coordinates>-43.1822,-22.9711,0</coordinates></Point>
    </Placemark>
    <Placemark>
      <name>🥾 פסל ישו הגואל</name>
      <description><![CDATA[🥾 <b>אטרקציה / טרק</b><br/>בוקר ג׳ 2.2 – לעלות מוקדם לפני העומס.<br/><a href="https://www.google.com/maps/search/?api=1&query=Cristo%20Redentor%2C%20Rio%20de%20Janeiro">פתיחה ב-Google Maps</a>]]></description>
      <styleUrl>#attraction</styleUrl>
      <Point><coordinates>-43.2105,-22.9519,0</coordinates></Point>
    </Placemark>
    <Placemark>
      <name>🥾 הר הסוכר (Pão de Açúcar)</name>
      <description><![CDATA[🥾 <b>אטרקציה / טרק</b><br/>רכבל לשקיעה – ערב ג׳ 2.2.<br/><a href="https://www.google.com/maps/search/?api=1&query=P%C3%A3o%20de%20A%C3%A7%C3%BAcar%2C%20Rio%20de%20Janeiro">פתיחה ב-Google Maps</a>]]></description>
      <styleUrl>#attraction</styleUrl>
      <Point><coordinates>-43.1566,-22.9486,0</coordinates></Point>
    </Placemark>
    <Placemark>
      <name>🥾 🎭 הסמבודרום – מצעד Série Ouro</name>
      <description><![CDATA[🥾 <b>אטרקציה / טרק</b><br/>ליל שישי 5.2 מ-21:00: מצעד הפתיחה של הקרנבל. כרטיסים מראש! (מצעדי-העל: ראשון–שלישי 7–9.2).<br/><a href="https://www.google.com/maps/search/?api=1&query=Sambodromo%20Marques%20de%20Sapucai%2C%20Rio%20de%20Janeiro">פתיחה ב-Google Maps</a>]]></description>
      <styleUrl>#attraction</styleUrl>
      <Point><coordinates>-43.1965,-22.9122,0</coordinates></Point>
    </Placemark>
    <Placemark>
      <name>🍻 🎭 לאפה – Pré-Carnaval</name>
      <description><![CDATA[🍻 <b>ברים וחיי לילה</b><br/>אזור המסיבות המקדימות – ערב ד׳ 3.2 מתחת לקשתות.<br/><a href="https://www.google.com/maps/search/?api=1&query=Arcos%20da%20Lapa%2C%20Rio%20de%20Janeiro">פתיחה ב-Google Maps</a>]]></description>
      <styleUrl>#nightlife</styleUrl>
      <Point><coordinates>-43.18,-22.913,0</coordinates></Point>
    </Placemark>
    <Placemark>
      <name>🍻 🎭 סנטה טרזה – בלוקו Carmelitas</name>
      <description><![CDATA[🍻 <b>ברים וחיי לילה</b><br/>בלוקו שכונתי מקסים בסמטאות – פתיחת הקרנבל, שישי 5.2.<br/><a href="https://www.google.com/maps/search/?api=1&query=Largo%20do%20Curvelo%2C%20Santa%20Teresa%2C%20Rio%20de%20Janeiro">פתיחה ב-Google Maps</a>]]></description>
      <styleUrl>#nightlife</styleUrl>
      <Point><coordinates>-43.1855,-22.9195,0</coordinates></Point>
    </Placemark>
    <Placemark>
      <name>🍻 🎭 בלוקו Cordão da Bola Preta</name>
      <description><![CDATA[🍻 <b>ברים וחיי לילה</b><br/>הבלוקו הוותיק והענק של ריו – שבת 6.2 בבוקר, לפני היציאה לבוזיוס.<br/><a href="https://www.google.com/maps/search/?api=1&query=Cordao%20da%20Bola%20Preta%2C%20Centro%2C%20Rio%20de%20Janeiro">פתיחה ב-Google Maps</a>]]></description>
      <styleUrl>#nightlife</styleUrl>
      <Point><coordinates>-43.174,-22.9027,0</coordinates></Point>
    </Placemark>
    <Placemark>
      <name>🍻 🎭 מסיבת סירה – Marina da Glória</name>
      <description><![CDATA[🍻 <b>ברים וחיי לילה</b><br/>Party Boat במפרץ גואנברה – בוקר שבת 6.2 (להזמין מראש).<br/><a href="https://www.google.com/maps/search/?api=1&query=Marina%20da%20Gloria%2C%20Rio%20de%20Janeiro">פתיחה ב-Google Maps</a>]]></description>
      <styleUrl>#nightlife</styleUrl>
      <Point><coordinates>-43.169,-22.9198,0</coordinates></Point>
    </Placemark>
    <Placemark>
      <name>🍻 Rio Scenarium – סמבה בלאפה</name>
      <description><![CDATA[🍻 <b>ברים וחיי לילה</b><br/>מועדון סמבה איקוני על 3 קומות – לערב שלא בבלוקו.<br/><a href="https://www.google.com/maps/search/?api=1&query=Rio%20Scenarium%2C%20Lapa%2C%20Rio%20de%20Janeiro">פתיחה ב-Google Maps</a>]]></description>
      <styleUrl>#nightlife</styleUrl>
      <Point><coordinates>-43.1836,-22.9082,0</coordinates></Point>
    </Placemark>
    <Placemark>
      <name>🏨 Janeiro Hotel (בוטיק)</name>
      <description><![CDATA[🏨 <b>לינה</b><br/>בוטיק שקט מול חוף לבלון.<br/><a href="https://www.google.com/maps/search/?api=1&query=Janeiro%20Hotel%2C%20Leblon%2C%20Rio%20de%20Janeiro">פתיחה ב-Google Maps</a>]]></description>
      <styleUrl>#hotel</styleUrl>
      <Point><coordinates>-43.2229,-22.9873,0</coordinates></Point>
    </Placemark>
    <Placemark>
      <name>🏨 Selina Copacabana (הוסטל)</name>
      <description><![CDATA[🏨 <b>לינה</b><br/>הוסטל-בוטיק ברמה גבוהה בקופקבנה.<br/><a href="https://www.google.com/maps/search/?api=1&query=Selina%20Copacabana%2C%20Rio%20de%20Janeiro">פתיחה ב-Google Maps</a>]]></description>
      <styleUrl>#hotel</styleUrl>
      <Point><coordinates>-43.1785,-22.9678,0</coordinates></Point>
    </Placemark>
    <Placemark>
      <name>🏨 Ipanema Beach House (הוסטל)</name>
      <description><![CDATA[🏨 <b>לינה</b><br/>הוסטל עם בריכה במרחק הליכה מהחוף.<br/><a href="https://www.google.com/maps/search/?api=1&query=Ipanema%20Beach%20House%2C%20Rio%20de%20Janeiro">פתיחה ב-Google Maps</a>]]></description>
      <styleUrl>#hotel</styleUrl>
      <Point><coordinates>-43.201,-22.984,0</coordinates></Point>
    </Placemark>
  </Document>
</kml>
