<?xml version="1.0" encoding="UTF-8"?>
<kml xmlns="http://www.opengis.net/kml/2.2">
  <Document>
    <name>🇧🇷 3. ריו דה ז&#x27;ניירו (Rio de Janeiro) | ימים 6–10</name>
    <Style id="attraction">
      <IconStyle><Icon><href>http://maps.google.com/mapfiles/ms/icons/green-dot.png</href></Icon></IconStyle>
    </Style>
    <Style id="nightlife">
      <IconStyle><Icon><href>http://maps.google.com/mapfiles/ms/icons/purple-dot.png</href></Icon></IconStyle>
    </Style>
    <Style id="hotel">
      <IconStyle><Icon><href>http://maps.google.com/mapfiles/ms/icons/blue-dot.png</href></Icon></IconStyle>
    </Style>
    <Style id="transport">
      <IconStyle><Icon><href>http://maps.google.com/mapfiles/ms/icons/yellow-dot.png</href></Icon></IconStyle>
    </Style>
    <Style id="route">
      <LineStyle><color>ccF27221</color><width>4</width></LineStyle>
    </Style>
    <Placemark>
      <name>🥾 פסל ישו הגואל</name>
      <description><![CDATA[🥾 <b>אטרקציה / טרק</b><br/>האייקון של ריו על הר הקורקובדו – לעלות ברכבת הקוגים או בוואן.<br/><a href="https://www.google.com/maps/search/?api=1&query=Cristo%20Redentor%2C%20Rio%20de%20Janeiro">פתיחה ב-Google Maps</a>]]></description>
      <styleUrl>#attraction</styleUrl>
      <Point><coordinates>-43.2105,-22.9519,0</coordinates></Point>
    </Placemark>
    <Placemark>
      <name>🥾 הר הסוכר (Pão de Açúcar)</name>
      <description><![CDATA[🥾 <b>אטרקציה / טרק</b><br/>רכבל לתצפית השקיעה הכי טובה בעיר.<br/><a href="https://www.google.com/maps/search/?api=1&query=P%C3%A3o%20de%20A%C3%A7%C3%BAcar%2C%20Rio%20de%20Janeiro">פתיחה ב-Google Maps</a>]]></description>
      <styleUrl>#attraction</styleUrl>
      <Point><coordinates>-43.1566,-22.9486,0</coordinates></Point>
    </Placemark>
    <Placemark>
      <name>🥾 חוף איפנמה</name>
      <description><![CDATA[🥾 <b>אטרקציה / טרק</b><br/>החוף המפורסם – פוסטו 9, שקיעה ב-Arpoador ליד.<br/><a href="https://www.google.com/maps/search/?api=1&query=Praia%20de%20Ipanema%2C%20Rio%20de%20Janeiro">פתיחה ב-Google Maps</a>]]></description>
      <styleUrl>#attraction</styleUrl>
      <Point><coordinates>-43.2065,-22.9868,0</coordinates></Point>
    </Placemark>
    <Placemark>
      <name>🥾 חוף קופקבנה</name>
      <description><![CDATA[🥾 <b>אטרקציה / טרק</b><br/>טיילת הגלים המפורסמת.<br/><a href="https://www.google.com/maps/search/?api=1&query=Praia%20de%20Copacabana%2C%20Rio%20de%20Janeiro">פתיחה ב-Google Maps</a>]]></description>
      <styleUrl>#attraction</styleUrl>
      <Point><coordinates>-43.1822,-22.9711,0</coordinates></Point>
    </Placemark>
    <Placemark>
      <name>🥾 טרק Morro Dois Irmãos (מפאבלת וידיגל)</name>
      <description><![CDATA[🥾 <b>אטרקציה / טרק</b><br/>מוטו-טקסי לראש פאבלת וידיגל + כ-40 דק&#x27; הליכה לתצפית הכי שווה בריו.<br/><a href="https://www.google.com/maps/search/?api=1&query=Trilha%20Morro%20Dois%20Irm%C3%A3os%2C%20Vidigal%2C%20Rio%20de%20Janeiro">פתיחה ב-Google Maps</a>]]></description>
      <styleUrl>#attraction</styleUrl>
      <Point><coordinates>-43.2395,-22.9925,0</coordinates></Point>
    </Placemark>
    <Placemark>
      <name>🍻 Pedra do Sal – סמבה פתוחה</name>
      <description><![CDATA[🍻 <b>ברים וחיי לילה</b><br/>מסיבת סמבה פתוחה ברחוב – בימי שני ושישי.<br/><a href="https://www.google.com/maps/search/?api=1&query=Pedra%20do%20Sal%2C%20Rio%20de%20Janeiro">פתיחה ב-Google Maps</a>]]></description>
      <styleUrl>#nightlife</styleUrl>
      <Point><coordinates>-43.1848,-22.8977,0</coordinates></Point>
    </Placemark>
    <Placemark>
      <name>🍻 Rio Scenarium – מועדון סמבה בלאפה</name>
      <description><![CDATA[🍻 <b>ברים וחיי לילה</b><br/>מועדון סמבה איקוני על 3 קומות בלאפה.<br/><a href="https://www.google.com/maps/search/?api=1&query=Rio%20Scenarium%2C%20Lapa%2C%20Rio%20de%20Janeiro">פתיחה ב-Google Maps</a>]]></description>
      <styleUrl>#nightlife</styleUrl>
      <Point><coordinates>-43.1836,-22.9082,0</coordinates></Point>
    </Placemark>
    <Placemark>
      <name>🍻 Bosque Bar – רופטופ</name>
      <description><![CDATA[🍻 <b>ברים וחיי לילה</b><br/>בר רופטופ ירוק ואווירתי.<br/><a href="https://www.google.com/maps/search/?api=1&query=Bosque%20Bar%2C%20Rio%20de%20Janeiro">פתיחה ב-Google Maps</a>]]></description>
      <styleUrl>#nightlife</styleUrl>
      <Point><coordinates>-43.221,-22.9756,0</coordinates></Point>
    </Placemark>
    <Placemark>
      <name>🍻 Canastra Rose – בר קוקטיילים</name>
      <description><![CDATA[🍻 <b>ברים וחיי לילה</b><br/>בר קוקטיילים/יין צרפתי-ברזילאי באיפנמה.<br/><a href="https://www.google.com/maps/search/?api=1&query=Canastra%20Bar%2C%20Ipanema%2C%20Rio%20de%20Janeiro">פתיחה ב-Google Maps</a>]]></description>
      <styleUrl>#nightlife</styleUrl>
      <Point><coordinates>-43.199,-22.9846,0</coordinates></Point>
    </Placemark>
    <Placemark>
      <name>🏨 Yoo2 Rio (בוטיק)</name>
      <description><![CDATA[🏨 <b>לינה</b><br/>מלון בוטיק מעוצב עם רופטופ מול הר הסוכר (בוטפוגו).<br/><a href="https://www.google.com/maps/search/?api=1&query=Yoo2%20Rio%20de%20Janeiro%20by%20Intercity">פתיחה ב-Google Maps</a>]]></description>
      <styleUrl>#hotel</styleUrl>
      <Point><coordinates>-43.181,-22.9445,0</coordinates></Point>
    </Placemark>
    <Placemark>
      <name>🏨 Janeiro Hotel (בוטיק)</name>
      <description><![CDATA[🏨 <b>לינה</b><br/>מלון בוטיק שקט מול חוף לבלון.<br/><a href="https://www.google.com/maps/search/?api=1&query=Janeiro%20Hotel%2C%20Leblon%2C%20Rio%20de%20Janeiro">פתיחה ב-Google Maps</a>]]></description>
      <styleUrl>#hotel</styleUrl>
      <Point><coordinates>-43.2229,-22.9873,0</coordinates></Point>
    </Placemark>
    <Placemark>
      <name>🏨 Selina Copacabana (הוסטל)</name>
      <description><![CDATA[🏨 <b>לינה</b><br/>הוסטל-בוטיק ברמה גבוהה בקופקבנה.<br/><a href="https://www.google.com/maps/search/?api=1&query=Selina%20Copacabana%2C%20Rio%20de%20Janeiro">פתיחה ב-Google Maps</a>]]></description>
      <styleUrl>#hotel</styleUrl>
      <Point><coordinates>-43.1785,-22.9678,0</coordinates></Point>
    </Placemark>
    <Placemark>
      <name>🏨 Ipanema Beach House (הוסטל)</name>
      <description><![CDATA[🏨 <b>לינה</b><br/>הוסטל עם בריכה במרחק הליכה מחוף איפנמה.<br/><a href="https://www.google.com/maps/search/?api=1&query=Ipanema%20Beach%20House%2C%20Rio%20de%20Janeiro">פתיחה ב-Google Maps</a>]]></description>
      <styleUrl>#hotel</styleUrl>
      <Point><coordinates>-43.201,-22.984,0</coordinates></Point>
    </Placemark>
    <Placemark>
      <name>✈️ שדה תעופה סנטוס דומון (SDU)</name>
      <description><![CDATA[✈️ <b>תחבורה / מעבר</b><br/>שדה פנים-ארצי במרכז העיר.<br/><a href="https://www.google.com/maps/search/?api=1&query=Santos%20Dumont%20Airport%2C%20Rio%20de%20Janeiro">פתיחה ב-Google Maps</a>]]></description>
      <styleUrl>#transport</styleUrl>
      <Point><coordinates>-43.1631,-22.9105,0</coordinates></Point>
    </Placemark>
    <Placemark>
      <name>✈️ שדה תעופה גליאאו (GIG)</name>
      <description><![CDATA[✈️ <b>תחבורה / מעבר</b><br/>השדה הבינלאומי – ממנו ממריאים לבוגוטה.<br/><a href="https://www.google.com/maps/search/?api=1&query=Rio%20de%20Janeiro%E2%80%93Gale%C3%A3o%20International%20Airport">פתיחה ב-Google Maps</a>]]></description>
      <styleUrl>#transport</styleUrl>
      <Point><coordinates>-43.2506,-22.809,0</coordinates></Point>
    </Placemark>
  </Document>
</kml>
