<?xml version="1.0" encoding="UTF-8"?>
<kml xmlns="http://www.opengis.net/kml/2.2">
  <Document>
    <name>🏰 7. קרטחנה | ימים 26–28 · ו׳–א׳ 26–28.2.2027</name>
    <Style id="attraction">
      <IconStyle><Icon><href>http://maps.google.com/mapfiles/ms/icons/green-dot.png</href></Icon></IconStyle>
    </Style>
    <Style id="nightlife">
      <IconStyle><Icon><href>http://maps.google.com/mapfiles/ms/icons/purple-dot.png</href></Icon></IconStyle>
    </Style>
    <Style id="hotel">
      <IconStyle><Icon><href>http://maps.google.com/mapfiles/ms/icons/blue-dot.png</href></Icon></IconStyle>
    </Style>
    <Style id="transport">
      <IconStyle><Icon><href>http://maps.google.com/mapfiles/ms/icons/yellow-dot.png</href></Icon></IconStyle>
    </Style>
    <Style id="route">
      <LineStyle><color>ccF27221</color><width>4</width></LineStyle>
    </Style>
    <Placemark>
      <name>🥾 העיר העתיקה – שער השעון</name>
      <description><![CDATA[🥾 <b>אטרקציה / טרק</b><br/>הכניסה לעיר המוקפת חומה – סמטאות קולוניאליות.<br/><a href="https://www.google.com/maps/search/?api=1&query=Torre%20del%20Reloj%2C%20Cartagena">פתיחה ב-Google Maps</a>]]></description>
      <styleUrl>#attraction</styleUrl>
      <Point><coordinates>-75.5498,10.4223,0</coordinates></Point>
    </Placemark>
    <Placemark>
      <name>🥾 שכונת חטסמני</name>
      <description><![CDATA[🥾 <b>אטרקציה / טרק</b><br/>השכונה הכי מגניבה – גרפיטי, דגלים וסמטאות.<br/><a href="https://www.google.com/maps/search/?api=1&query=Getseman%C3%AD%2C%20Cartagena">פתיחה ב-Google Maps</a>]]></description>
      <styleUrl>#attraction</styleUrl>
      <Point><coordinates>-75.546,10.421,0</coordinates></Point>
    </Placemark>
    <Placemark>
      <name>🥾 מבצר סן פליפה</name>
      <description><![CDATA[🥾 <b>אטרקציה / טרק</b><br/>המבצר הספרדי הגדול באמריקה – ש׳ 27.2.<br/><a href="https://www.google.com/maps/search/?api=1&query=Castillo%20San%20Felipe%20de%20Barajas%2C%20Cartagena">פתיחה ב-Google Maps</a>]]></description>
      <styleUrl>#attraction</styleUrl>
      <Point><coordinates>-75.5395,10.4229,0</coordinates></Point>
    </Placemark>
    <Placemark>
      <name>🥾 שיט לאיי רוסריו</name>
      <description><![CDATA[🥾 <b>אטרקציה / טרק</b><br/>יום שיט – א׳ 28.2, יציאה מהנמל בבוקר.<br/><a href="https://www.google.com/maps/search/?api=1&query=Islas%20del%20Rosario%2C%20Cartagena">פתיחה ב-Google Maps</a>]]></description>
      <styleUrl>#attraction</styleUrl>
      <Point><coordinates>-75.75,10.183,0</coordinates></Point>
    </Placemark>
    <Placemark>
      <name>🍻 Café del Mar – שקיעה על החומה</name>
      <description><![CDATA[🍻 <b>ברים וחיי לילה</b><br/>קוקטייל שקיעה על החומות מול הקריביים.<br/><a href="https://www.google.com/maps/search/?api=1&query=Caf%C3%A9%20del%20Mar%2C%20Cartagena">פתיחה ב-Google Maps</a>]]></description>
      <styleUrl>#nightlife</styleUrl>
      <Point><coordinates>-75.5537,10.4249,0</coordinates></Point>
    </Placemark>
    <Placemark>
      <name>🍻 Alquímico – טופ 10 בעולם</name>
      <description><![CDATA[🍻 <b>ברים וחיי לילה</b><br/>בר קוקטיילים על 3 קומות – מהטובים בעולם.<br/><a href="https://www.google.com/maps/search/?api=1&query=Alqu%C3%ADmico%2C%20Cartagena">פתיחה ב-Google Maps</a>]]></description>
      <styleUrl>#nightlife</styleUrl>
      <Point><coordinates>-75.5506,10.4238,0</coordinates></Point>
    </Placemark>
    <Placemark>
      <name>🍻 Café Havana – סלסה</name>
      <description><![CDATA[🍻 <b>ברים וחיי לילה</b><br/>מועדון סלסה חי עם להקה קובנית.<br/><a href="https://www.google.com/maps/search/?api=1&query=Caf%C3%A9%20Havana%2C%20Getseman%C3%AD%2C%20Cartagena">פתיחה ב-Google Maps</a>]]></description>
      <styleUrl>#nightlife</styleUrl>
      <Point><coordinates>-75.545,10.421,0</coordinates></Point>
    </Placemark>
    <Placemark>
      <name>🍻 Chiva Rumbera – אוטובוס מסיבות</name>
      <description><![CDATA[🍻 <b>ברים וחיי לילה</b><br/>אוטובוס מסיבות צבעוני עם רום חופשי.<br/><a href="https://www.google.com/maps/search/?api=1&query=Camell%C3%B3n%20de%20los%20M%C3%A1rtires%2C%20Cartagena">פתיחה ב-Google Maps</a>]]></description>
      <styleUrl>#nightlife</styleUrl>
      <Point><coordinates>-75.548,10.4215,0</coordinates></Point>
    </Placemark>
    <Placemark>
      <name>🍻 Plaza de la Trinidad</name>
      <description><![CDATA[🍻 <b>ברים וחיי לילה</b><br/>כיכר הבילויים של חטסמני.<br/><a href="https://www.google.com/maps/search/?api=1&query=Plaza%20de%20la%20Trinidad%2C%20Getseman%C3%AD%2C%20Cartagena">פתיחה ב-Google Maps</a>]]></description>
      <styleUrl>#nightlife</styleUrl>
      <Point><coordinates>-75.5459,10.4193,0</coordinates></Point>
    </Placemark>
    <Placemark>
      <name>🏨 Townhouse Boutique Hotel (בוטיק)</name>
      <description><![CDATA[🏨 <b>לינה</b><br/>בוטיק עם רופטופ-בר בעיר העתיקה.<br/><a href="https://www.google.com/maps/search/?api=1&query=Townhouse%20Boutique%20Hotel%2C%20Cartagena">פתיחה ב-Google Maps</a>]]></description>
      <styleUrl>#hotel</styleUrl>
      <Point><coordinates>-75.55,10.4245,0</coordinates></Point>
    </Placemark>
    <Placemark>
      <name>🏨 Viajero Cartagena Hostel (הוסטל)</name>
      <description><![CDATA[🏨 <b>לינה</b><br/>הוסטל גדול וחברתי בעיר העתיקה.<br/><a href="https://www.google.com/maps/search/?api=1&query=Viajero%20Cartagena%20Hostel">פתיחה ב-Google Maps</a>]]></description>
      <styleUrl>#hotel</styleUrl>
      <Point><coordinates>-75.5515,10.4245,0</coordinates></Point>
    </Placemark>
    <Placemark>
      <name>✈️ שדה תעופה קרטחנה (CTG)</name>
      <description><![CDATA[✈️ <b>תחבורה / מעבר</b><br/>ממריאים מכאן לסאן אנדרס – ב׳ 1.3.<br/><a href="https://www.google.com/maps/search/?api=1&query=Rafael%20N%C3%BA%C3%B1ez%20International%20Airport%2C%20Cartagena">פתיחה ב-Google Maps</a>]]></description>
      <styleUrl>#transport</styleUrl>
      <Point><coordinates>-75.513,10.4424,0</coordinates></Point>
    </Placemark>
  </Document>
</kml>
